#cP2023  4 10  0  0  0.00000000      96 ORBIT IGS20 HLM  IGS
## 2257  86400.00000000   900.00000000 60044 0.0000000000000
+   32   G01G02G03G04G05G06G07G08G09G10G11G12G13G14G15G16G17
+        G18G19G20G21G22G23G24G25G26G27G28G29G30G31G32  0  0
+          0  0  0  0  0  0  0  0  0  0  0  0  0  0  0  0  0
+          0  0  0  0  0  0  0  0  0  0  0  0  0  0  0  0  0
+          0  0  0  0  0  0  0  0  0  0  0  0  0  0  0  0  0
++         2  2  2  2  2  3  2  2  2  2  3  2  2  2  2  2  2
++         3  2  2  2  2  2  2  2  2  2  3  2  2  2  2  0  0
++         0  0  0  0  0  0  0  0  0  0  0  0  0  0  0  0  0
++         0  0  0  0  0  0  0  0  0  0  0  0  0  0  0  0  0
++         0  0  0  0  0  0  0  0  0  0  0  0  0  0  0  0  0
%c G  cc GPS ccc cccc cccc cccc cccc ccccc ccccc ccccc ccccc
%c cc cc ccc ccc cccc cccc cccc cccc ccccc ccccc ccccc ccccc
%f  1.2500000  1.025000000  0.00000000000  0.000000000000000
%f  0.0000000  0.000000000  0.00000000000  0.000000000000000
%i    0    0    0    0      0      0      0      0         0
%i    0    0    0    0      0      0      0      0         0
/* FINAL ORBIT COMBINATION FROM WEIGHTED AVERAGE OF:        
/* cod esa gfz grg jpl mit ngs sio                          
/* REFERENCED TO IGS TIME (IGST) AND TO WEIGHTED MEAN POLE: 
/* PCV:IGS20_2233 OL/AL:FES2014b NONE     Y  ORB:CMB CLK:CMB
*  2023  4 10 15  0  0.00000000
PG01  12788.291258 -21548.958467  -8563.631285    194.516609  8  9  9  78       
PG02  -5051.128653  22377.176116  14242.138243   -607.338250  4     4  62       
PG03   5952.800062 -13839.185604 -21991.299880   -332.288534  5  4  3  39       
PG04   1765.205950 -23816.180196 -11492.411894     13.538916  7  7  4  58       
PG05 -21432.878969   6257.706377  14305.014552   -122.875369  3  8  4  33       
PG06 -15958.114960  -3125.854115 -20959.010323    586.310569  8    10  84       
PG07   -382.914408 -19156.008924  18634.977675    204.406929     5  2  22       
PG08   9551.837355 -14793.388393  19693.651558   -117.090135  6  4  4  64       
PG09  -7209.756278 -25478.132372  -1813.757264   -182.876558  7  6  3  91       
PG10  22348.091511  11416.523652   9339.583031    -32.249790  5  5  5  66       
PG11 -21634.748460   9413.058136 -12156.538355   -158.001519  8  7  7  56       
PG12  -9378.645340  12770.929477 -21584.894596   -362.248966  4  8  3  57       
PG13 -13717.627183   7078.103920  21414.375907    503.713941  4  5  3 117       
PG14 -20004.952566 -13500.795265  11255.546801     21.003138  6  6  6  73       
PG15  -7690.522166  16467.824093  18827.239858     29.394795  6  3  3  54       
PG16  23661.886792  -1258.223609  12142.285446   -509.802063  4  7  2  66       
PG17 -12871.903887 -19904.544126 -11447.820559    709.910106  4     3  63       
PG18   2930.841125  16860.781969  20271.031399   -218.147872  5  6  5  45       
PG19 -15272.750149 -11614.703043 -18715.761191    301.813772  5  4  5  95       
PG20 -25849.314715   2320.817513   5165.211202    439.827693     5  5  57       
PG21  16962.575259 -19783.656210   1841.286516    154.258096  6  6  5  94       
PG22  15690.392210   8023.593061 -19474.926961    461.636173  5  4  5  63       
PG23  12510.872773  14977.241542  18090.150791     15.932997  5  6  5   7       
PG24 -13828.804373  22180.603539  -3535.934675   -146.438260  4  6  6  60       
PG25   3163.571195  16092.329751 -21253.338498    434.554877  3  5  6  62       
PG26  26375.454335   4436.891366   -444.322016    241.812350  6  7  1  59       
PG27  14775.909893  -2739.245070  21670.346376     61.959212  6  4  5  65       
PG28  15222.341547   4975.815581 -21214.731789     62.489635  6  5  7  36       
PG29   2268.634462  25886.112530  -5325.071631   -594.908840  4  3  6  96       
PG30 -11289.722391 -11056.242032  21449.420604   -523.026735  4  3  4  69       
PG31  19668.412996  -1911.832062 -18131.080958   -213.655295  6  1  4  43       
PG32  15354.892687  17016.991778 -13413.347511   -447.815562  4  4  4  30       
*  2023  4 10 15 15  0.00000000
PG01  13448.781945 -22014.439930  -5787.080120    194.513562  7 10  8  70       
PG02  -6006.258632  23417.597826  11942.055790   -607.335062  3  2  4  67       
PG03   8359.941471 -13340.393413 -21497.605765   -332.280849  5  5  2  58       
PG04   2397.909216 -22490.364632 -13821.319238     13.547196  7  8  4  60       
PG05 -22917.502774   5852.094613  12031.481936   -122.877113  2  8  4  62       
PG06 -14375.644212  -4991.838193 -21717.986394    586.311963  7  2 10  89       
PG07   1047.680247 -20534.129439  16988.531995    204.399193     5  2  41       
PG08  10481.828846 -12647.145602  20721.347667   -117.092452  6  5  4  57       
PG09  -6830.004908 -25233.757503  -4630.032876   -182.869478  7  6  4  89       
PG10  21161.977627  11352.325222  11858.834228    -32.251610  4  6  5  75       
PG11 -20722.866006   8178.190587 -14427.970178   -158.012740  8  7  7  78       
PG12 -11652.554403  12105.019963 -20829.917191   -362.253341  4  8  3  78       
PG13 -14244.293679   4626.975880  21752.846682    503.719034  4  5  3 117       
PG14 -18573.095921 -13412.487155  13565.593125     21.013364  6  6  6  87       
PG15  -8884.461489  14470.654725  19910.714868     29.397473  5  3  3  64       
PG16  24838.366779   -730.884170   9686.386039   -509.799627  4  7  2  57       
PG17 -13001.382213 -21137.536174  -8892.955840    709.911584  3     3  58       
PG18   1354.210316  18465.201375  18986.547280   -218.162889  6  6  5  58       
PG19 -15618.976865 -13579.234569 -17035.513715    301.818283  5  4  5  70       
PG20 -26273.169692   2008.772164   2367.996612    439.824970     5  5  44       
PG21  17025.447209 -19339.679401   4716.729964    154.257829  7  7  5  79       
PG22  16125.826988  10213.785238 -18090.312415    461.642409  5  3  6  73       
PG23  10375.649407  14741.856750  19561.291068     15.935234  5  6  5  37       
PG24 -14243.840126  22140.190357   -723.464779   -146.451438  4  6  6  53       
PG25    802.046151  15706.262713 -21740.100661    434.557529  4  6  6  58       
PG26  26144.471815   4712.752612  -3216.608419    241.812129  6  7  2  70       
PG27  15592.592378   -369.734809  21305.875549     61.951909  6  4  5  52       
PG28  13721.432823   6911.386013 -21692.037585     62.495834  6  5  6  56       
PG29   1875.696429  25202.738636  -8079.649137   -594.910763  3  4  7  92       
PG30  -9657.815630 -12856.584658  21216.731418   -523.025172  3  4  5  64       
PG31  18336.461792   -271.152164 -19543.695656   -213.656028  6  2  4  41       
PG32  15639.727175  18422.894965 -11069.403865   -447.824763  5  4  3  57       
*  2023  4 10 15 30  0.00000000
PG01  13885.269914 -22262.117108  -2909.584587    194.510538  7 10  8  70       
PG02  -6762.851916  24285.577702   9445.556339   -607.331927  3  3  5  88       
PG03  10716.569606 -12984.467649 -20637.557720   -332.273177  5  6  3  77       
PG04   3186.761302 -20964.851467 -15910.925176     13.555412  7  8  4  77       
PG05 -24151.368360   5549.213598   9550.326425   -122.878549  2  7  4  47       
PG06 -12860.603467  -6996.469151 -22101.525747    586.313265  7  5  9  72       
PG07   2289.374584 -21826.792948  15053.396513    204.391936     5  1           
PG08  11558.318451 -10466.353663  21387.721657   -117.094068  6  5  4  48       
PG09  -6312.052758 -24721.526281  -7366.522428   -182.862393  7  6  4  67       
PG10  19704.917825  11319.903524  14179.038002    -32.253162  5  6  5  48       
PG11 -19719.905808   6711.453705 -16450.601391   -158.023947  8  7  6  71       
PG12 -13858.483420  11581.747782 -19724.544214   -362.257415  5  8  3  66       
PG13 -14903.744678   2192.619988  21710.630036    503.724269  3  5  2 119       
PG14 -16893.979213 -13356.907563  15643.862830     21.023604  6  5  6  91       
PG15 -10221.223183  12441.410795  20635.997142     29.400717  5  4  3  45       
PG16  25759.844793   -332.105976   7065.792159   -509.797005  3  7  2  70       
PG17 -13100.219384 -22073.948651  -6181.519709    709.913101  3     4  60       
PG18    -32.113553  20024.194575  17373.852235   -218.177946  5  6  5  60       
PG19 -16014.516365 -15325.828383 -15070.076008    301.822963  5  4  5  57       
PG20 -26392.343830   1706.036398   -470.455204    439.823467     5  6  36       
PG21  16931.620468 -18629.414938   7507.621329    154.257738  7  7  6  89       
PG22  16619.308466  12205.639867 -16385.026955    461.648602  4  2  6  67       
PG23   8082.878676  14608.100668  20697.375063     15.937482  5  6  5  30       
PG24 -14490.282041  21847.178475   2101.739387   -146.464567  4  6  7  64       
PG25  -1612.342746  15439.198672 -21864.012768    434.560179  4  7  6  50       
PG26  25621.045639   4979.061906  -5934.763104    241.811932  6  7  1  47       
PG27  16507.290366   1890.913587  20568.297895     61.944576  6  5  5  55       
PG28  12304.914660   8949.655303 -21797.001092     62.501976  6  4  6           
PG29   1351.026921  24252.441649 -10694.739356   -594.912139  4  5  7  99       
PG30  -8141.662201 -14699.158433  20621.488794   -523.023537  2  4  5  82       
PG31  17003.283601   1548.050984 -20628.932593   -213.656776  6  2  3  65       
PG32  15889.850902  19556.191269  -8535.370645   -447.833976  5  3  3  48       
EOF
